SL-16 R/B               
1 25407U 98045B   26085.73697201 -.00000247  00000+0 -10055-3 0  9998
2 25407  71.0107 145.7267 0007881 341.4011  18.6823 14.16194690429516
ISS (ZARYA)             
1 25544U 98067A   26085.80952179  .00012890  00000+0  24531-3 0  9999
2 25544  51.6341 347.7277 0006205 236.0994 123.9405 15.48566257558983
CZ-4B R/B               
1 25732U 99025C   26085.37541692  .00000053  00000+0  46635-4 0  9997
2 25732  98.6593 129.2593 0036057 297.6687  72.5234 14.18268532390531
OKEAN-O                 
1 25860U 99039A   26085.61775765  .00000646  00000+0  91511-4 0  9992
2 25860  97.9407 145.3343 0000885  88.0649 272.0664 14.80361551436899
SL-16 R/B               
1 25861U 99039B   26085.58171278  .00000520  00000+0  72753-4 0  9996
2 25861  97.9930 144.6502 0014381 197.5513 162.5205 14.81753607439369
DELTA 2 R/B             
1 25876U 99041E   26085.43168605  .00000714  00000+0  15446-3 0  9999
2 25876  51.7606 234.4010 0502635  37.8096 325.7055 14.11874235365392
HELIOS 1B               
1 25977U 99064A   26085.66270654  .00001674  00000+0  18984-3 0  9995
2 25977  98.1673 348.4033 0001942  52.9684 307.1709 14.87761510687784
TERRA                   
1 25994U 99068A   26085.90355801  .00000438  00000+0  98276-4 0  9993
2 25994  97.9557 138.6777 0003519 115.5192 296.7267 14.61032475397599
SL-16 R/B               
1 26070U 00006B   26085.96880679  .00000304  00000+0  17851-3 0  9996
2 26070  71.0016  61.5015 0015848 162.8342 197.3320 14.15825972351000
TITAN 4B R/B            
1 26474U 00047B   26085.92267299  .00004000  00000+0  25121-3 0  9998
2 26474  67.9912 352.0478 0039794  15.2274 345.0063 15.09720918395517
ENVISAT                 
1 27386U 02009A   26085.84785146  .00000121  00000+0  52945-4 0  9993
2 27386  98.3755  39.0396 0001221  81.5064 298.9111 14.39042714261640
IDEFIX & ARIANE 42P R/B 
1 27422U 02021B   26085.83594415  .00000292  00000+0  12742-3 0  9993
2 27422  98.5889  24.2393 0012529 132.9462 227.2774 14.31037480246470
